{
  "type": "FeatureCollection",
  "features": [
    {
      "type": "Feature",
      "properties": {},
      "geometry": {
        "type": "LineString",
        "coordinates": [
          [-103.7045631, 19.23083],
          [-103.7061059, 19.2310663],
          [-103.7078194, 19.2287626],
          [-103.7181643, 19.2289254],
          [-103.7213828, 19.2293595],
          [-103.7273023, 19.2331037],
          [-103.7308081, 19.2351657],
          [-103.7386817, 19.2398866],
          [-103.7449461, 19.2400494],
          [-103.7487393, 19.2403207],
          [-103.7481645, 19.2447701],
          [-103.745003, 19.2529071],
          [-103.7425317, 19.2594721],
          [-103.7388535, 19.2660911],
          [-103.7512674, 19.2732034],
          [-103.7640261, 19.2780859],
          [-103.7890837, 19.287308],
          [-103.7949459, 19.2898576],
          [-103.7952332, 19.2899661]
        ]
      }
    }
  ]
}